{"fetched_at":"2026-03-29T16:36:15Z","count":15609,"tles":[{"name":"STARLINK-30356","line1":"1 57748U 23131S   26087.65594016  .00003815  00000+0  15187-3 0  9991","line2":"2 57748  43.0018  64.7799 0001094 255.9674 104.1056 15.26728900142827","category":"Starlink"}]}