{
  "norad_id": 57748,
  "name": "STARLINK-30356",
  "history": [
    {
      "epoch": "2026-03-28T15:44:33.229824",
      "apogee_km": 486.34987807328616,
      "perigee_km": 484.84768086059194,
      "latitude_deg": -39.627498290690184,
      "longitude_deg": 17.770255360053852,
      "semi_major_axis_km": 6863.735779466939,
      "eccentricity": 0.00010943,
      "inclination_deg": 43.0018,
      "raan_deg": 64.7799,
      "arg_perigee_deg": 255.9674,
      "mean_anomaly_deg": 104.1056,
      "mean_motion_rev_day": 15.267289
    }
  ]
}